ONEWEB-0211             
1 48767U 21045A   26173.51233439  .00000004  00000+0 -21997-4 0  9999
2 48767  87.9005 258.0198 0002095 120.0413 240.0926 13.16196907245145
ONEWEB-0223             
1 48768U 21045B   26173.51728448  .00000131  00000+0  31308-3 0  9995
2 48768  87.9006 258.1285 0001839 112.4319 247.7006 13.15550159245101
ONEWEB-0230             
1 48769U 21045C   26173.48875894 -.00000053  00000+0 -17455-3 0  9992
2 48769  87.8999 258.1475 0002021  95.4347 264.7014 13.15549509245361
ONEWEB-0237             
1 48770U 21045D   26173.47766176  .00000049  00000+0  95201-4 0  9994
2 48770  87.9001 258.1515 0001788 104.4768 255.6561 13.15548237245082
ONEWEB-0235             
1 48771U 21045E   26173.68049011  .00000090  00000+0  20626-3 0  9994
2 48771  87.9007 258.0973 0001741 111.3160 248.8157 13.15549016245102
ONEWEB-0242             
1 48772U 21045F   26173.52202874  .00000137  00000+0  33030-3 0  9991
2 48772  87.9010 258.1257 0001803 100.8328 259.3006 13.15547611245122
ONEWEB-0241             
1 48773U 21045G   26173.50935879  .00000013  00000+0 -36692-6 0  9992
2 48773  87.8996 258.1459 0001995 113.2758 246.8582 13.15549819245038
ONEWEB-0243             
1 48774U 21045H   26173.23681543  .00000174  00000+0  42753-3 0  9998
2 48774  87.9001 258.2127 0001447  99.8368 260.2926 13.15549540245020
ONEWEB-0222             
1 48775U 21045J   26173.52440630  .00000134  00000+0  32202-3 0  9995
2 48775  87.9008 258.1233 0001911 107.7183 252.4157 13.15548978245107
ONEWEB-0244             
1 48776U 21045K   26173.47449826 -.00000021  00000+0 -89334-4 0  9992
2 48776  87.9015 258.1282 0001871 102.5100 257.6240 13.15549113245660
ONEWEB-0247             
1 48777U 21045L   26173.47132807 -.00000006  00000+0 -50322-4 0  9999
2 48777  87.9000 258.1604 0001270 115.0084 245.1178 13.15547946245109
ONEWEB-0245             
1 48778U 21045M   26173.69474439  .00000101  00000+0  23380-3 0  9991
2 48778  87.9009 258.0955 0002006 105.6272 254.5080 13.15548492245102
ONEWEB-0229             
1 48779U 21045N   26173.23364725  .00000183  00000+0  45166-3 0  9994
2 48779  87.9012 258.1852 0001872 100.1907 259.9434 13.15549428245077
ONEWEB-0228             
1 48780U 21045P   26173.49522834 -.00000199  00000+0 -56398-3 0  9999
2 48780  87.9013 258.1261 0001942 102.3020 257.8328 13.15547122245025
ONEWEB-0232             
1 48781U 21045Q   26173.46973283  .00000093  00000+0  21235-3 0  9998
2 48781  87.9012 258.1320 0002050 102.2648 257.8712 13.15547563245348
ONEWEB-0231             
1 48782U 21045R   26173.21938368  .00000186  00000+0  46133-3 0  9994
2 48782  87.9006 258.1945 0001866 107.7999 252.3335 13.15548968245002
ONEWEB-0234             
1 48783U 21045S   26173.48544731 -.00000115  00000+0 -34081-3 0  9994
2 48783  87.9007 258.1234 0002811 105.4485 254.6956 13.15549367245177
ONEWEB-0238             
1 48784U 21045T   26173.25754965 -.00000082  00000+0 -25060-3 0  9992
2 48784  87.9016 258.1638 0002447 104.1066 256.0337 13.15548040245044
ONEWEB-0240             
1 48785U 21045U   26173.50697785 -.00000069  00000+0 -21854-3 0  9999
2 48785  87.9010 258.1239 0001987 110.5546 249.5798 13.15548501245105
ONEWEB-0246             
1 48786U 21045V   26173.50143150 -.00000109  00000+0 -32384-3 0  9997
2 48786  87.9009 258.1293 0001877 100.0149 260.1194 13.15549566244970
ONEWEB-0210             
1 48787U 21045W   26173.47606610  .00000022  00000+0  23549-4 0  9995
2 48787  87.9010 258.1315 0001134 101.7559 258.3698 13.15547451245012
ONEWEB-0214             
1 48788U 21045X   26173.48478930 -.00000105  00000+0 -31387-3 0  9991
2 48788  87.9012 258.1267 0001752  91.5557 268.5774 13.15549262244986
ONEWEB-0221             
1 48789U 21045Y   26173.26375566 -.00000055  00000+0 -18013-3 0  9994
2 48789  87.9010 258.1793 0001890 105.1327 255.0012 13.15548879245046
ONEWEB-0213             
1 48790U 21045Z   26173.48083064 -.00000050  00000+0 -16573-3 0  9993
2 48790  87.9011 258.1394 0001748 105.1172 255.0152 13.15547749245136
ONEWEB-0212             
1 48791U 21045AA  26173.68601847  .00000164  00000+0  40286-3 0  9993
2 48791  87.9008 258.0927 0002042 100.7706 259.3654 13.15550736245152
ONEWEB-0227             
1 48792U 21045AB  26173.68523940  .00000159  00000+0  38819-3 0  9994
2 48792  87.9008 258.0935 0001976 103.3346 256.8004 13.15549569245104
ONEWEB-0226             
1 48793U 21045AC  26173.52676813 -.00000119  00000+0 -35013-3 0  9997
2 48793  87.9006 258.1296 0001703 102.3215 257.8106 13.15548736245059
ONEWEB-0224             
1 48794U 21045AD  26173.49033812 -.00000064  00000+0 -20501-3 0  9995
2 48794  87.9000 258.1707 0002597 117.7578 242.3816 13.15547818244972
ONEWEB-0233             
1 48795U 21045AE  26173.49495659 -.00000101  00000+0 -30288-3 0  9992
2 48795  87.8999 258.1772 0001890 108.8555 251.2781 13.15549136244999
ONEWEB-0190             
1 48796U 21045AF  26173.48241308 -.00000056  00000+0 -18242-3 0  9997
2 48796  87.9005 258.1419 0001497 116.9928 243.1355 13.15548145245069
