OBJECT_NAME,OBJECT_ID,EPOCH,MEAN_MOTION,ECCENTRICITY,INCLINATION,RA_OF_ASC_NODE,ARG_OF_PERICENTER,MEAN_ANOMALY,EPHEMERIS_TYPE,CLASSIFICATION_TYPE,NORAD_CAT_ID,ELEMENT_SET_NO,REV_AT_EPOCH,BSTAR,MEAN_MOTION_DOT,MEAN_MOTION_DDOT
ONEWEB-0211,2021-045A,2026-06-22T12:17:45.691296,13.16196907,.00020958,87.9005,258.0198,120.0413,240.0926,0,U,48767,999,24514,-.21997096E-4,.4E-7,0
ONEWEB-0223,2021-045B,2026-06-22T12:24:53.379072,13.15550159,.00018399,87.9006,258.1285,112.4319,247.7006,0,U,48768,999,24510,.3130824E-3,.131E-5,0
ONEWEB-0230,2021-045C,2026-06-22T11:43:48.772416,13.15549509,.00020218,87.8999,258.1475,95.4347,264.7014,0,U,48769,999,24536,-.1745457E-3,-.53E-6,0
ONEWEB-0237,2021-045D,2026-06-22T11:27:49.976064,13.15548237,.00017882,87.9001,258.1515,104.4768,255.6561,0,U,48770,999,24508,.95200809E-4,.49E-6,0
ONEWEB-0235,2021-045E,2026-06-22T16:19:54.345504,13.15549016,.00017416,87.9007,258.0973,111.3160,248.8157,0,U,48771,999,24510,.20626174E-3,.9E-6,0
ONEWEB-0242,2021-045F,2026-06-22T12:31:43.283136,13.15547611,.00018031,87.9010,258.1257,100.8328,259.3006,0,U,48772,999,24512,.33030073E-3,.137E-5,0
ONEWEB-0241,2021-045G,2026-06-22T12:13:28.599456,13.15549819,.0001995,87.8996,258.1459,113.2758,246.8582,0,U,48773,999,24503,-.366916E-6,.13E-6,0
ONEWEB-0243,2021-045H,2026-06-22T05:41:00.853152,13.15549540,.00014478,87.9001,258.2127,99.8368,260.2926,0,U,48774,999,24502,.42753292E-3,.174E-5,0
ONEWEB-0222,2021-045J,2026-06-22T12:35:08.704320,13.15548978,.00019114,87.9008,258.1233,107.7183,252.4157,0,U,48775,999,24510,.32202397E-3,.134E-5,0
ONEWEB-0244,2021-045K,2026-06-22T11:23:16.649664,13.15549113,.00018714,87.9015,258.1282,102.5100,257.6240,0,U,48776,999,24566,-.89333847E-4,-.21E-6,0
ONEWEB-0247,2021-045L,2026-06-22T11:18:42.745248,13.15547946,.00012709,87.9000,258.1604,115.0084,245.1178,0,U,48777,999,24510,-.50322484E-4,-.6E-7,0
ONEWEB-0245,2021-045M,2026-06-22T16:40:25.915296,13.15548492,.0002006,87.9009,258.0955,105.6272,254.5080,0,U,48778,999,24510,.23380166E-3,.101E-5,0
ONEWEB-0229,2021-045N,2026-06-22T05:36:27.122400,13.15549428,.00018721,87.9012,258.1852,100.1907,259.9434,0,U,48779,999,24507,.45166413E-3,.183E-5,0
ONEWEB-0228,2021-045P,2026-06-22T11:53:07.728576,13.15547122,.0001942,87.9013,258.1261,102.3020,257.8328,0,U,48780,999,24502,-.56397828E-3,-.199E-5,0
ONEWEB-0232,2021-045Q,2026-06-22T11:16:24.916512,13.15547563,.00020505,87.9012,258.1320,102.2648,257.8712,0,U,48781,999,24534,.21235389E-3,.93E-6,0
ONEWEB-0231,2021-045R,2026-06-22T05:15:54.749952,13.15548968,.0001866,87.9006,258.1945,107.7999,252.3335,0,U,48782,999,24500,.46132626E-3,.186E-5,0
ONEWEB-0234,2021-045S,2026-06-22T11:39:02.647584,13.15549367,.00028117,87.9007,258.1234,105.4485,254.6956,0,U,48783,999,24517,-.34081169E-3,-.115E-5,0
ONEWEB-0238,2021-045T,2026-06-22T06:10:52.289760,13.15548040,.00024479,87.9016,258.1638,104.1066,256.0337,0,U,48784,999,24504,-.25059662E-3,-.82E-6,0
ONEWEB-0240,2021-045U,2026-06-22T12:10:02.886240,13.15548501,.00019871,87.9010,258.1239,110.5546,249.5798,0,U,48785,999,24510,-.21854112E-3,-.69E-6,0
ONEWEB-0246,2021-045V,2026-06-22T12:02:03.681600,13.15549566,.00018777,87.9009,258.1293,100.0149,260.1194,0,U,48786,999,24497,-.3238403E-3,-.109E-5,0
ONEWEB-0210,2021-045W,2026-06-22T11:25:32.111040,13.15547451,.00011347,87.9010,258.1315,101.7559,258.3698,0,U,48787,999,24501,.23549085E-4,.22E-6,0
ONEWEB-0214,2021-045X,2026-06-22T11:38:05.795520,13.15549262,.00017528,87.9012,258.1267,91.5557,268.5774,0,U,48788,999,24498,-.31387358E-3,-.105E-5,0
ONEWEB-0221,2021-045Y,2026-06-22T06:19:48.489024,13.15548879,.000189,87.9010,258.1793,105.1327,255.0012,0,U,48789,999,24504,-.18013171E-3,-.55E-6,0
ONEWEB-0213,2021-045Z,2026-06-22T11:32:23.767296,13.15547749,.0001748,87.9011,258.1394,105.1172,255.0152,0,U,48790,999,24513,-.16573124E-3,-.5E-6,0
ONEWEB-0212,2021-045AA,2026-06-22T16:27:51.995808,13.15550736,.0002042,87.9008,258.0927,100.7706,259.3654,0,U,48791,999,24515,.4028615E-3,.164E-5,0
ONEWEB-0227,2021-045AB,2026-06-22T16:26:44.684160,13.15549569,.00019764,87.9008,258.0935,103.3346,256.8004,0,U,48792,999,24510,.38818892E-3,.159E-5,0
ONEWEB-0226,2021-045AC,2026-06-22T12:38:32.766432,13.15548736,.00017035,87.9006,258.1296,102.3215,257.8106,0,U,48793,999,24505,-.35013278E-3,-.119E-5,0
ONEWEB-0224,2021-045AD,2026-06-22T11:46:05.213568,13.15547818,.00025974,87.9000,258.1707,117.7578,242.3816,0,U,48794,999,24497,-.20501464E-3,-.64E-6,0
ONEWEB-0233,2021-045AE,2026-06-22T11:52:44.249376,13.15549136,.00018909,87.8999,258.1772,108.8555,251.2781,0,U,48795,999,24499,-.30287537E-3,-.101E-5,0
ONEWEB-0190,2021-045AF,2026-06-22T11:34:40.490112,13.15548145,.00014975,87.9005,258.1419,116.9928,243.1355,0,U,48796,999,24506,-.18242302E-3,-.56E-6,0
